{
    "links": {
        "self": "http://www.neowsapp.com/rest/v1/neo/3363430?api_key=iIulBulltgU6a56xZRHN4H3l9WmuAYTsLGpBGhQ2"
    },
    "id": "3363430",
    "neo_reference_id": "3363430",
    "name": "(2006 XY2)",
    "designation": "2006 XY2",
    "nasa_jpl_url": "http://ssd.jpl.nasa.gov/sbdb.cgi?sstr=3363430",
    "absolute_magnitude_h": 22.5,
    "estimated_diameter": {
        "kilometers": {
            "estimated_diameter_min": 0.0840533402,
            "estimated_diameter_max": 0.1879489824
        },
        "meters": {
            "estimated_diameter_min": 84.0533402073,
            "estimated_diameter_max": 187.9489824394
        },
        "miles": {
            "estimated_diameter_min": 0.0522283081,
            "estimated_diameter_max": 0.1167860472
        },
        "feet": {
            "estimated_diameter_min": 275.7655606856,
            "estimated_diameter_max": 616.6305395464
        }
    },
    "is_potentially_hazardous_asteroid": false,
    "close_approach_data": [
        {
            "close_approach_date": "1975-01-06",
            "close_approach_date_full": "1975-Jan-06 11:48",
            "epoch_date_close_approach": 158240880000,
            "relative_velocity": {
                "kilometers_per_second": "8.7187544243",
                "kilometers_per_hour": "31387.5159273362",
                "miles_per_hour": "19502.9817716273"
            },
            "miss_distance": {
                "astronomical": "0.271525934",
                "lunar": "105.623588326",
                "kilometers": "40619701.37616058",
                "miles": "25239912.044872804"
            },
            "orbiting_body": "Earth"
        },
        {
            "close_approach_date": "2006-12-30",
            "close_approach_date_full": "2006-Dec-30 06:37",
            "epoch_date_close_approach": 1167460620000,
            "relative_velocity": {
                "kilometers_per_second": "7.653492536",
                "kilometers_per_hour": "27552.5731295182",
                "miles_per_hour": "17120.0974537276"
            },
            "miss_distance": {
                "astronomical": "0.1843898635",
                "lunar": "71.7276569015",
                "kilometers": "27584330.829190745",
                "miles": "17140108.379872481"
            },
            "orbiting_body": "Earth"
        },
        {
            "close_approach_date": "2024-01-12",
            "close_approach_date_full": "2024-Jan-12 04:46",
            "epoch_date_close_approach": 1705034760000,
            "relative_velocity": {
                "kilometers_per_second": "9.2766285564",
                "kilometers_per_hour": "33395.862803068",
                "miles_per_hour": "20750.8904178286"
            },
            "miss_distance": {
                "astronomical": "0.3427704358",
                "lunar": "133.3376995262",
                "kilometers": "51277727.094651746",
                "miles": "31862502.1327602548"
            },
            "orbiting_body": "Earth"
        }
    ],
    "orbital_data": {
        "orbit_id": "13",
        "orbit_determination_date": "2017-04-06 09:07:23",
        "first_observation_date": "2006-12-13",
        "last_observation_date": "2007-01-10",
        "data_arc_in_days": 28,
        "observations_used": 38,
        "orbit_uncertainty": "6",
        "minimum_orbit_intersection": ".182049",
        "jupiter_tisserand_invariant": "4.429",
        "epoch_osculation": "2459000.5",
        "eccentricity": ".2482329021488624",
        "semi_major_axis": "1.525309960935564",
        "inclination": "13.97647534071293",
        "ascending_node_longitude": "266.2748414567816",
        "orbital_period": "688.0746952783916",
        "perihelion_distance": "1.146677842655961",
        "perihelion_argument": "209.3979822186247",
        "aphelion_distance": "1.903942079215167",
        "perihelion_time": "2458934.267549692601",
        "mean_anomaly": "34.65275249079852",
        "mean_motion": ".5231990109073054",
        "equinox": "J2000",
        "orbit_class": {
            "orbit_class_type": "AMO",
            "orbit_class_description": "Near-Earth asteroid orbits similar to that of 1221 Amor",
            "orbit_class_range": "1.017 AU < q (perihelion) < 1.3 AU"
        }
    },
    "is_sentry_object": false
}